[{"OBJECT_NAME":"STARLINK-30892","OBJECT_ID":"2023-177R","EPOCH":"2026-03-09T22:00:01.999584","MEAN_MOTION":15.26754133,"ECCENTRICITY":0.0001698,"INCLINATION":43.0009,"RA_OF_ASC_NODE":349.0843,"ARG_OF_PERICENTER":264.5012,"MEAN_ANOMALY":141.2544,"EPHEMERIS_TYPE":0,"CLASSIFICATION_TYPE":"U","NORAD_CAT_ID":58366,"ELEMENT_SET_NO":999,"REV_AT_EPOCH":578,"BSTAR":-0.00044717978,"MEAN_MOTION_DOT":-0.0001224,"MEAN_MOTION_DDOT":0},{"OBJECT_NAME":"FLOCK 4G-26","OBJECT_ID":"2025-009AA","EPOCH":"2026-03-09T19:19:02.910720","MEAN_MOTION":15.27281631,"ECCENTRICITY":0.0001988,"INCLINATION":97.4054,"RA_OF_ASC_NODE":151.3913,"ARG_OF_PERICENTER":299.1273,"MEAN_ANOMALY":60.9767,"EPHEMERIS_TYPE":0,"CLASSIFICATION_TYPE":"U","NORAD_CAT_ID":62633,"ELEMENT_SET_NO":999,"REV_AT_EPOCH":6373,"BSTAR":0.00042468806,"MEAN_MOTION_DOT":0.00011283,"MEAN_MOTION_DDOT":0}]
